STARLINK-30588          
1 58062U 23158M   26068.25105251  .00004486  00000+0  17658-3 0  9994
2 58062  43.0009  29.4554 0001033 282.9067  77.1669 15.26786887133505
FLOCK 4G-24             
1 62637U 25009AE  26068.72509072  .00010513  00000+0  38996-3 0  9991
2 62637  97.4061 151.5140 0001802 280.2808  79.8228 15.27784978 63732
